{"type": "FeatureCollection", "features": [{"type": "Feature", "properties": {"norad_id": 24876, "name": "GPS BIIR-2  (PRN 13)", "group": "gnss", "lat": 4.363007786042975, "lon": -76.9727834926726, "alt_km": 20299.505239176513, "timestamp": "2025-12-09T11:33:55.040687+00:00", "meta": {"OBJECT_NAME": "GPS BIIR-2  (PRN 13)", "OBJECT_ID": "1997-035A", "EPOCH": "2025-12-08T17:51:24.025248", "MEAN_MOTION": 2.00563531, "ECCENTRICITY": 0.0096734, "INCLINATION": 55.8934, "RA_OF_ASC_NODE": 106.0252, "ARG_OF_PERICENTER": 57.0084, "MEAN_ANOMALY": 303.8909, "EPHEMERIS_TYPE": 0, "CLASSIFICATION_TYPE": "U", "NORAD_CAT_ID": 24876, "ELEMENT_SET_NO": 999, "REV_AT_EPOCH": 20813, "BSTAR": 0, "MEAN_MOTION_DOT": 1.8e-07, "MEAN_MOTION_DDOT": 0}, "tle": {"line1": "1 24876U 97035A   25342.74402807  .00000018  00000+0  00000+0 0  9996", "line2": "2 24876  55.8934 106.0252 0096734  57.0084 303.8909  2.00563531208133"}}, "geometry": {"type": "Point", "coordinates": [-76.9727834926726, 4.363007786042975]}}, {"type": "Feature", "properties": {"norad_id": 26360, "name": "GPS BIIR-4  (PRN 20)", "group": "gnss", "lat": -54.813425249082655, "lon": -70.4495488669904, "alt_km": 20093.22899454217, "timestamp": "2025-12-09T11:33:55.040733+00:00", "meta": {"OBJECT_NAME": "GPS BIIR-4  (PRN 20)", "OBJECT_ID": "2000-025A", "EPOCH": "2025-12-09T04:14:58.003008", "MEAN_MOTION": 2.00567914, "ECCENTRICITY": 0.0038848, "INCLINATION": 55.0431, "RA_OF_ASC_NODE": 26.982, "ARG_OF_PERICENTER": 241.6461, "MEAN_ANOMALY": 163.8162, "EPHEMERIS_TYPE": 0, "CLASSIFICATION_TYPE": "U", "NORAD_CAT_ID": 26360, "ELEMENT_SET_NO": 999, "REV_AT_EPOCH": 18746, "BSTAR": 0, "MEAN_MOTION_DOT": -9.2e-07, "MEAN_MOTION_DDOT": 0}, "tle": {"line1": "1 26360U 00025A   25343.17706022 -.00000092  00000+0  00000+0 0  9996", "line2": "2 26360  55.0431  26.9820 0038848 241.6461 163.8162  2.00567914187466"}}, "geometry": {"type": "Point", "coordinates": [-70.4495488669904, -54.813425249082655]}}, {"type": "Feature", "properties": {"norad_id": 26407, "name": "GPS BIIR-5  (PRN 22)", "group": "gnss", "lat": 52.022122953507186, "lon": -21.517165856540032, "alt_km": 20496.73279284228, "timestamp": "2025-12-09T11:33:55.040751+00:00", "meta": {"OBJECT_NAME": "GPS BIIR-5  (PRN 22)", "OBJECT_ID": "2000-040A", "EPOCH": "2025-12-09T01:51:39.036096", "MEAN_MOTION": 2.00567849, "ECCENTRICITY": 0.0126212, "INCLINATION": 54.8916, "RA_OF_ASC_NODE": 222.7147, "ARG_OF_PERICENTER": 301.7415, "MEAN_ANOMALY": 231.4474, "EPHEMERIS_TYPE": 0, "CLASSIFICATION_TYPE": "U", "NORAD_CAT_ID": 26407, "ELEMENT_SET_NO": 999, "REV_AT_EPOCH": 18613, "BSTAR": 0, "MEAN_MOTION_DOT": 8e-08, "MEAN_MOTION_DDOT": 0}, "tle": {"line1": "1 26407U 00040A   25343.07753514  .00000008  00000+0  00000+0 0  9998", "line2": "2 26407  54.8916 222.7147 0126212 301.7415 231.4474  2.00567849186139"}}, "geometry": {"type": "Point", "coordinates": [-21.517165856540032, 52.022122953507186]}}, {"type": "Feature", "properties": {"norad_id": 27663, "name": "GPS BIIR-8  (PRN 16)", "group": "gnss", "lat": -45.5375391261441, "lon": 88.19666985351483, "alt_km": 20573.418871481972, "timestamp": "2025-12-09T11:33:55.040766+00:00", "meta": {"OBJECT_NAME": "GPS BIIR-8  (PRN 16)", "OBJECT_ID": "2003-005A", "EPOCH": "2025-12-08T15:56:33.296928", "MEAN_MOTION": 2.00571063, "ECCENTRICITY": 0.0147293, "INCLINATION": 54.9243, "RA_OF_ASC_NODE": 222.5404, "ARG_OF_PERICENTER": 51.7448, "MEAN_ANOMALY": 318.8801, "EPHEMERIS_TYPE": 0, "CLASSIFICATION_TYPE": "U", "NORAD_CAT_ID": 27663, "ELEMENT_SET_NO": 999, "REV_AT_EPOCH": 16749, "BSTAR": 0, "MEAN_MOTION_DOT": 1.2e-07, "MEAN_MOTION_DDOT": 0}, "tle": {"line1": "1 27663U 03005A   25342.66427427  .00000012  00000+0  00000+0 0  9997", "line2": "2 27663  54.9243 222.5404 0147293  51.7448 318.8801  2.00571063167497"}}, "geometry": {"type": "Point", "coordinates": [88.19666985351483, -45.5375391261441]}}, {"type": "Feature", "properties": {"norad_id": 28190, "name": "GPS BIIR-11 (PRN 19)", "group": "gnss", "lat": 30.948609446995324, "lon": -51.84280720335504, "alt_km": 20356.532888578175, "timestamp": "2025-12-09T11:33:55.040779+00:00", "meta": {"OBJECT_NAME": "GPS BIIR-11 (PRN 19)", "OBJECT_ID": "2004-009A", "EPOCH": "2025-12-09T02:41:41.936352", "MEAN_MOTION": 2.00560834, "ECCENTRICITY": 0.0108305, "INCLINATION": 54.989, "RA_OF_ASC_NODE": 283.3651, "ARG_OF_PERICENTER": 167.5856, "MEAN_ANOMALY": 325.415, "EPHEMERIS_TYPE": 0, "CLASSIFICATION_TYPE": "U", "NORAD_CAT_ID": 28190, "ELEMENT_SET_NO": 999, "REV_AT_EPOCH": 15913, "BSTAR": 0, "MEAN_MOTION_DOT": -5.3e-07, "MEAN_MOTION_DDOT": 0}, "tle": {"line1": "1 28190U 04009A   25343.11229093 -.00000053  00000+0  00000+0 0  9994", "line2": "2 28190  54.9890 283.3651 0108305 167.5856 325.4150  2.00560834159137"}}, "geometry": {"type": "Point", "coordinates": [-51.84280720335504, 30.948609446995324]}}, {"type": "Feature", "properties": {"norad_id": 28474, "name": "GPS BIIR-13 (PRN 02)", "group": "gnss", "lat": 53.78382716293979, "lon": 81.08492819174033, "alt_km": 20573.80807097641, "timestamp": "2025-12-09T11:33:55.040799+00:00", "meta": {"OBJECT_NAME": "GPS BIIR-13 (PRN 02)", "OBJECT_ID": "2004-045A", "EPOCH": "2025-12-08T20:14:45.178080", "MEAN_MOTION": 2.0056922, "ECCENTRICITY": 0.0170688, "INCLINATION": 55.2426, "RA_OF_ASC_NODE": 332.5625, "ARG_OF_PERICENTER": 309.0781, "MEAN_ANOMALY": 49.896, "EPHEMERIS_TYPE": 0, "CLASSIFICATION_TYPE": "U", "NORAD_CAT_ID": 28474, "ELEMENT_SET_NO": 999, "REV_AT_EPOCH": 15461, "BSTAR": 0, "MEAN_MOTION_DOT": -8.3e-07, "MEAN_MOTION_DDOT": 0}, "tle": {"line1": "1 28474U 04045A   25342.84357845 -.00000083  00000+0  00000+0 0  9998", "line2": "2 28474  55.2426 332.5625 0170688 309.0781  49.8960  2.00569220154614"}}, "geometry": {"type": "Point", "coordinates": [81.08492819174033, 53.78382716293979]}}, {"type": "Feature", "properties": {"norad_id": 28874, "name": "GPS BIIRM-1 (PRN 17)", "group": "gnss", "lat": 45.14924483215075, "lon": -34.553071953726175, "alt_km": 20380.169701559607, "timestamp": "2025-12-09T11:33:55.040812+00:00", "meta": {"OBJECT_NAME": "GPS BIIRM-1 (PRN 17)", "OBJECT_ID": "2005-038A", "EPOCH": "2025-12-09T01:52:55.800768", "MEAN_MOTION": 2.0057855, "ECCENTRICITY": 0.013175, "INCLINATION": 55.0352, "RA_OF_ASC_NODE": 280.8483, "ARG_OF_PERICENTER": 293.4065, "MEAN_ANOMALY": 193.8993, "EPHEMERIS_TYPE": 0, "CLASSIFICATION_TYPE": "U", "NORAD_CAT_ID": 28874, "ELEMENT_SET_NO": 999, "REV_AT_EPOCH": 14802, "BSTAR": 0, "MEAN_MOTION_DOT": -5e-07, "MEAN_MOTION_DDOT": 0}, "tle": {"line1": "1 28874U 05038A   25343.07842362 -.00000050  00000+0  00000+0 0  9998", "line2": "2 28874  55.0352 280.8483 0131750 293.4065 193.8993  2.00578550148029"}}, "geometry": {"type": "Point", "coordinates": [-34.553071953726175, 45.14924483215075]}}, {"type": "Feature", "properties": {"norad_id": 28899, "name": "INMARSAT 4-F2 (SOUTHPAN/PRN 122)", "group": "gnss", "lat": -0.6777197466529752, "lon": 35.51340885075994, "alt_km": 35795.49959230983, "timestamp": "2025-12-09T11:33:55.040827+00:00", "meta": {"OBJECT_NAME": "INMARSAT 4-F2 (SOUTHPAN/PRN 122)", "OBJECT_ID": "2005-044A", "EPOCH": "2025-12-08T22:50:48.373728", "MEAN_MOTION": 1.00272355, "ECCENTRICITY": 0.0003199, "INCLINATION": 4.8474, "RA_OF_ASC_NODE": 43.6797, "ARG_OF_PERICENTER": 217.6913, "MEAN_ANOMALY": 302.7876, "EPHEMERIS_TYPE": 0, "CLASSIFICATION_TYPE": "U", "NORAD_CAT_ID": 28899, "ELEMENT_SET_NO": 999, "REV_AT_EPOCH": 7361, "BSTAR": 0, "MEAN_MOTION_DOT": -2.6e-06, "MEAN_MOTION_DDOT": 0}, "tle": {"line1": "1 28899U 05044A   25342.95194877 -.00000260  00000+0  00000+0 0  9992", "line2": "2 28899   4.8474  43.6797 0003199 217.6913 302.7876  1.00272355 73617"}}, "geometry": {"type": "Point", "coordinates": [35.51340885075994, -0.6777197466529752]}}, {"type": "Feature", "properties": {"norad_id": 29486, "name": "GPS BIIRM-2 (PRN 31)", "group": "gnss", "lat": -31.02290348308726, "lon": 133.6288969120786, "alt_km": 20189.17368336025, "timestamp": "2025-12-09T11:33:55.040840+00:00", "meta": {"OBJECT_NAME": "GPS BIIRM-2 (PRN 31)", "OBJECT_ID": "2006-042A", "EPOCH": "2025-12-08T13:17:33.123840", "MEAN_MOTION": 2.00554246, "ECCENTRICITY": 0.0107364, "INCLINATION": 54.6936, "RA_OF_ASC_NODE": 158.9068, "ARG_OF_PERICENTER": 51.8598, "MEAN_ANOMALY": 320.1374, "EPHEMERIS_TYPE": 0, "CLASSIFICATION_TYPE": "U", "NORAD_CAT_ID": 29486, "ELEMENT_SET_NO": 999, "REV_AT_EPOCH": 14057, "BSTAR": 0, "MEAN_MOTION_DOT": 6e-07, "MEAN_MOTION_DDOT": 0}, "tle": {"line1": "1 29486U 06042A   25342.55385560  .00000060  00000+0  00000+0 0  9998", "line2": "2 29486  54.6936 158.9068 0107364  51.8598 320.1374  2.00554246140573"}}, "geometry": {"type": "Point", "coordinates": [133.6288969120786, -31.02290348308726]}}, {"type": "Feature", "properties": {"norad_id": 29601, "name": "GPS BIIRM-3 (PRN 12)", "group": "gnss", "lat": 15.0418525179412, "lon": -127.60585631796555, "alt_km": 20093.94442210181, "timestamp": "2025-12-09T11:33:55.040852+00:00", "meta": {"OBJECT_NAME": "GPS BIIRM-3 (PRN 12)", "OBJECT_ID": "2006-052A", "EPOCH": "2025-12-08T22:59:17.693952", "MEAN_MOTION": 2.00573216, "ECCENTRICITY": 0.0087724, "INCLINATION": 54.9712, "RA_OF_ASC_NODE": 221.5484, "ARG_OF_PERICENTER": 87.3982, "MEAN_ANOMALY": 273.6876, "EPHEMERIS_TYPE": 0, "CLASSIFICATION_TYPE": "U", "NORAD_CAT_ID": 29601, "ELEMENT_SET_NO": 999, "REV_AT_EPOCH": 13959, "BSTAR": 0, "MEAN_MOTION_DOT": 1e-07, "MEAN_MOTION_DDOT": 0}, "tle": {"line1": "1 29601U 06052A   25342.95784368  .00000010  00000+0  00000+0 0  9996", "line2": "2 29601  54.9712 221.5484 0087724  87.3982 273.6876  2.00573216139591"}}, "geometry": {"type": "Point", "coordinates": [-127.60585631796555, 15.0418525179412]}}]}